ONEWEB-0354             
1 49217U 21083AH  26023.21033198  .00000109  00000+0  23713-3 0  9995
2 49217  87.9234 303.3629 0001870  84.4080 275.7267 13.20772651217677
ONEWEB-0355             
1 49218U 21083AJ  26023.62125860 -.00000275  00000+0 -78863-3 0  9991
2 49218  87.9001 348.9832 0001672  88.6973 271.4348 13.13470843211923
ONEWEB-0357             
1 49219U 21083AK  26023.51020275  .00000126  00000+0  27884-3 0  9994
2 49219  87.9229 303.2986 0001514  77.3654 282.7649 13.20774132217714
ONEWEB-0332             
1 49279U 21090A   26023.21424979 -.00000060  00000+0 -19635-3 0  9998
2 49279  87.9023 318.6077 0001582  71.4864 288.6437 13.14501728208538
ONEWEB-0347             
1 49280U 21090B   26023.50071171  .00000077  00000+0  15683-3 0  9999
2 49280  87.9225 303.3092 0001707  66.3809 293.7503 13.20774334211945
ONEWEB-0349             
1 49281U 21090C   26023.53229440 -.00000047  00000+0 -14663-3 0  9993
2 49281  87.9228 303.3024 0001668  78.2498 281.8823 13.20772349210739
ONEWEB-0353             
1 49282U 21090D   26023.51080081  .00000166  00000+0  41324-3 0  9992
2 49282  87.9031 318.5386 0001610  67.1705 292.9594 13.14504194208577
ONEWEB-0356             
1 49283U 21090E   26023.53072086  .00000422  00000+0  10049-2 0  9995
2 49283  87.9233 303.2951 0002174  62.8693 297.2662 13.20774153210731
ONEWEB-0358             
1 49284U 21090F   26023.25767619  .00000185  00000+0  42388-3 0  9996
2 49284  87.9232 303.3524 0001850  77.6691 282.4649 13.20773030211421
ONEWEB-0359             
1 49285U 21090G   26023.48178939  .00000142  00000+0  31678-3 0  9996
2 49285  87.9229 303.3058 0001963  86.8609 273.2749 13.20772890211439
ONEWEB-0360             
1 49286U 21090H   26023.32080076  .00000141  00000+0  31580-3 0  9995
2 49286  87.9230 303.3445 0001715  80.6852 279.4475 13.20773803210729
ONEWEB-0361             
1 49287U 21090J   26023.52913308 -.00000008  00000+0 -50698-4 0  9997
2 49287  87.9227 303.3006 0001864  72.8350 287.2988 13.20773813211201
ONEWEB-0362             
1 49288U 21090K   26023.59460824  .00000078  00000+0  16240-3 0  9994
2 49288  87.9232 333.7574 0001557  85.5971 274.5340 13.19726583207840
ONEWEB-0363             
1 49289U 21090L   26023.31764975  .00000153  00000+0  34412-3 0  9994
2 49289  87.9232 303.3428 0001993  71.9720 288.1630 13.20772470211180
ONEWEB-0364             
1 49290U 21090M   26023.50704436  .00000040  00000+0  65551-4 0  9997
2 49290  87.9220 303.3246 0001808  74.7981 285.3352 13.20772006212346
ONEWEB-0365             
1 49291U 21090N   26023.60407020  .00000044  00000+0  78482-4 0  9999
2 49291  87.9252 333.7283 0001680  79.2765 280.8557 13.19728114207359
