[{"OBJECT_NAME":"ONEWEB-0354","OBJECT_ID":"2021-083AH","EPOCH":"2026-01-23T05:02:52.683072","MEAN_MOTION":13.20772651,"ECCENTRICITY":0.00018706,"INCLINATION":87.9234,"RA_OF_ASC_NODE":303.3629,"ARG_OF_PERICENTER":84.408,"MEAN_ANOMALY":275.7267,"EPHEMERIS_TYPE":0,"CLASSIFICATION_TYPE":"U","NORAD_CAT_ID":49217,"ELEMENT_SET_NO":999,"REV_AT_EPOCH":21767,"BSTAR":0.00023712945,"MEAN_MOTION_DOT":1.09e-6,"MEAN_MOTION_DDOT":0},{"OBJECT_NAME":"ONEWEB-0355","OBJECT_ID":"2021-083AJ","EPOCH":"2026-01-23T14:54:36.743040","MEAN_MOTION":13.13470843,"ECCENTRICITY":0.00016723,"INCLINATION":87.9001,"RA_OF_ASC_NODE":348.9832,"ARG_OF_PERICENTER":88.6973,"MEAN_ANOMALY":271.4348,"EPHEMERIS_TYPE":0,"CLASSIFICATION_TYPE":"U","NORAD_CAT_ID":49218,"ELEMENT_SET_NO":999,"REV_AT_EPOCH":21192,"BSTAR":-0.00078862648,"MEAN_MOTION_DOT":-2.75e-6,"MEAN_MOTION_DDOT":0},{"OBJECT_NAME":"ONEWEB-0357","OBJECT_ID":"2021-083AK","EPOCH":"2026-01-23T12:14:41.517600","MEAN_MOTION":13.20774132,"ECCENTRICITY":0.00015149,"INCLINATION":87.9229,"RA_OF_ASC_NODE":303.2986,"ARG_OF_PERICENTER":77.3654,"MEAN_ANOMALY":282.7649,"EPHEMERIS_TYPE":0,"CLASSIFICATION_TYPE":"U","NORAD_CAT_ID":49219,"ELEMENT_SET_NO":999,"REV_AT_EPOCH":21771,"BSTAR":0.0002788372,"MEAN_MOTION_DOT":1.26e-6,"MEAN_MOTION_DDOT":0},{"OBJECT_NAME":"ONEWEB-0332","OBJECT_ID":"2021-090A","EPOCH":"2026-01-23T05:08:31.181856","MEAN_MOTION":13.14501728,"ECCENTRICITY":0.00015821,"INCLINATION":87.9023,"RA_OF_ASC_NODE":318.6077,"ARG_OF_PERICENTER":71.4864,"MEAN_ANOMALY":288.6437,"EPHEMERIS_TYPE":0,"CLASSIFICATION_TYPE":"U","NORAD_CAT_ID":49279,"ELEMENT_SET_NO":999,"REV_AT_EPOCH":20853,"BSTAR":-0.00019635029,"MEAN_MOTION_DOT":-6.0e-7,"MEAN_MOTION_DDOT":0},{"OBJECT_NAME":"ONEWEB-0347","OBJECT_ID":"2021-090B","EPOCH":"2026-01-23T12:01:01.491744","MEAN_MOTION":13.20774334,"ECCENTRICITY":0.00017075,"INCLINATION":87.9225,"RA_OF_ASC_NODE":303.3092,"ARG_OF_PERICENTER":66.3809,"MEAN_ANOMALY":293.7503,"EPHEMERIS_TYPE":0,"CLASSIFICATION_TYPE":"U","NORAD_CAT_ID":49280,"ELEMENT_SET_NO":999,"REV_AT_EPOCH":21194,"BSTAR":0.00015682776,"MEAN_MOTION_DOT":7.7e-7,"MEAN_MOTION_DDOT":0},{"OBJECT_NAME":"ONEWEB-0349","OBJECT_ID":"2021-090C","EPOCH":"2026-01-23T12:46:30.236160","MEAN_MOTION":13.20772349,"ECCENTRICITY":0.00016687,"INCLINATION":87.9228,"RA_OF_ASC_NODE":303.3024,"ARG_OF_PERICENTER":78.2498,"MEAN_ANOMALY":281.8823,"EPHEMERIS_TYPE":0,"CLASSIFICATION_TYPE":"U","NORAD_CAT_ID":49281,"ELEMENT_SET_NO":999,"REV_AT_EPOCH":21073,"BSTAR":-0.00014662623,"MEAN_MOTION_DOT":-4.7e-7,"MEAN_MOTION_DDOT":0},{"OBJECT_NAME":"ONEWEB-0353","OBJECT_ID":"2021-090D","EPOCH":"2026-01-23T12:15:33.189984","MEAN_MOTION":13.14504194,"ECCENTRICITY":0.00016103,"INCLINATION":87.9031,"RA_OF_ASC_NODE":318.5386,"ARG_OF_PERICENTER":67.1705,"MEAN_ANOMALY":292.9594,"EPHEMERIS_TYPE":0,"CLASSIFICATION_TYPE":"U","NORAD_CAT_ID":49282,"ELEMENT_SET_NO":999,"REV_AT_EPOCH":20857,"BSTAR":0.00041324127,"MEAN_MOTION_DOT":1.66e-6,"MEAN_MOTION_DDOT":0},{"OBJECT_NAME":"ONEWEB-0356","OBJECT_ID":"2021-090E","EPOCH":"2026-01-23T12:44:14.282304","MEAN_MOTION":13.20774153,"ECCENTRICITY":0.00021744,"INCLINATION":87.9233,"RA_OF_ASC_NODE":303.2951,"ARG_OF_PERICENTER":62.8693,"MEAN_ANOMALY":297.2662,"EPHEMERIS_TYPE":0,"CLASSIFICATION_TYPE":"U","NORAD_CAT_ID":49283,"ELEMENT_SET_NO":999,"REV_AT_EPOCH":21073,"BSTAR":0.0010049042,"MEAN_MOTION_DOT":4.22e-6,"MEAN_MOTION_DDOT":0},{"OBJECT_NAME":"ONEWEB-0358","OBJECT_ID":"2021-090F","EPOCH":"2026-01-23T06:11:03.222816","MEAN_MOTION":13.2077303,"ECCENTRICITY":0.000185,"INCLINATION":87.9232,"RA_OF_ASC_NODE":303.3524,"ARG_OF_PERICENTER":77.6691,"MEAN_ANOMALY":282.4649,"EPHEMERIS_TYPE":0,"CLASSIFICATION_TYPE":"U","NORAD_CAT_ID":49284,"ELEMENT_SET_NO":999,"REV_AT_EPOCH":21142,"BSTAR":0.00042388311,"MEAN_MOTION_DOT":1.85e-6,"MEAN_MOTION_DDOT":0},{"OBJECT_NAME":"ONEWEB-0359","OBJECT_ID":"2021-090G","EPOCH":"2026-01-23T11:33:46.603296","MEAN_MOTION":13.2077289,"ECCENTRICITY":0.00019633,"INCLINATION":87.9229,"RA_OF_ASC_NODE":303.3058,"ARG_OF_PERICENTER":86.8609,"MEAN_ANOMALY":273.2749,"EPHEMERIS_TYPE":0,"CLASSIFICATION_TYPE":"U","NORAD_CAT_ID":49285,"ELEMENT_SET_NO":999,"REV_AT_EPOCH":21143,"BSTAR":0.000316776,"MEAN_MOTION_DOT":1.42e-6,"MEAN_MOTION_DDOT":0},{"OBJECT_NAME":"ONEWEB-0360","OBJECT_ID":"2021-090H","EPOCH":"2026-01-23T07:41:57.185664","MEAN_MOTION":13.20773803,"ECCENTRICITY":0.00017157,"INCLINATION":87.923,"RA_OF_ASC_NODE":303.3445,"ARG_OF_PERICENTER":80.6852,"MEAN_ANOMALY":279.4475,"EPHEMERIS_TYPE":0,"CLASSIFICATION_TYPE":"U","NORAD_CAT_ID":49286,"ELEMENT_SET_NO":999,"REV_AT_EPOCH":21072,"BSTAR":0.00031580322,"MEAN_MOTION_DOT":1.41e-6,"MEAN_MOTION_DDOT":0},{"OBJECT_NAME":"ONEWEB-0361","OBJECT_ID":"2021-090J","EPOCH":"2026-01-23T12:41:57.098112","MEAN_MOTION":13.20773813,"ECCENTRICITY":0.00018647,"INCLINATION":87.9227,"RA_OF_ASC_NODE":303.3006,"ARG_OF_PERICENTER":72.835,"MEAN_ANOMALY":287.2988,"EPHEMERIS_TYPE":0,"CLASSIFICATION_TYPE":"U","NORAD_CAT_ID":49287,"ELEMENT_SET_NO":999,"REV_AT_EPOCH":21120,"BSTAR":-5.069824e-5,"MEAN_MOTION_DOT":-8.0e-8,"MEAN_MOTION_DDOT":0},{"OBJECT_NAME":"ONEWEB-0362","OBJECT_ID":"2021-090K","EPOCH":"2026-01-23T14:16:14.151936","MEAN_MOTION":13.19726583,"ECCENTRICITY":0.00015572,"INCLINATION":87.9232,"RA_OF_ASC_NODE":333.7574,"ARG_OF_PERICENTER":85.5971,"MEAN_ANOMALY":274.534,"EPHEMERIS_TYPE":0,"CLASSIFICATION_TYPE":"U","NORAD_CAT_ID":49288,"ELEMENT_SET_NO":999,"REV_AT_EPOCH":20784,"BSTAR":0.00016240119,"MEAN_MOTION_DOT":7.8e-7,"MEAN_MOTION_DDOT":0},{"OBJECT_NAME":"ONEWEB-0363","OBJECT_ID":"2021-090L","EPOCH":"2026-01-23T07:37:24.938400","MEAN_MOTION":13.2077247,"ECCENTRICITY":0.00019931,"INCLINATION":87.9232,"RA_OF_ASC_NODE":303.3428,"ARG_OF_PERICENTER":71.972,"MEAN_ANOMALY":288.163,"EPHEMERIS_TYPE":0,"CLASSIFICATION_TYPE":"U","NORAD_CAT_ID":49289,"ELEMENT_SET_NO":999,"REV_AT_EPOCH":21118,"BSTAR":0.00034411588,"MEAN_MOTION_DOT":1.53e-6,"MEAN_MOTION_DDOT":0},{"OBJECT_NAME":"ONEWEB-0364","OBJECT_ID":"2021-090M","EPOCH":"2026-01-23T12:10:08.632704","MEAN_MOTION":13.20772006,"ECCENTRICITY":0.00018081,"INCLINATION":87.922,"RA_OF_ASC_NODE":303.3246,"ARG_OF_PERICENTER":74.7981,"MEAN_ANOMALY":285.3352,"EPHEMERIS_TYPE":0,"CLASSIFICATION_TYPE":"U","NORAD_CAT_ID":49290,"ELEMENT_SET_NO":999,"REV_AT_EPOCH":21234,"BSTAR":6.5550978e-5,"MEAN_MOTION_DOT":4.0e-7,"MEAN_MOTION_DDOT":0},{"OBJECT_NAME":"ONEWEB-0365","OBJECT_ID":"2021-090N","EPOCH":"2026-01-23T14:29:51.665280","MEAN_MOTION":13.19728114,"ECCENTRICITY":0.00016809,"INCLINATION":87.9252,"RA_OF_ASC_NODE":333.7283,"ARG_OF_PERICENTER":79.2765,"MEAN_ANOMALY":280.8557,"EPHEMERIS_TYPE":0,"CLASSIFICATION_TYPE":"U","NORAD_CAT_ID":49291,"ELEMENT_SET_NO":999,"REV_AT_EPOCH":20735,"BSTAR":7.8482343e-5,"MEAN_MOTION_DOT":4.4e-7,"MEAN_MOTION_DDOT":0}]
